{"type": "FeatureCollection", "features": [{"type": "Feature", "properties": {"objectid": 17256, "anp_gid": 105, "zr_codi": "ZR17", "zr_nomb": "Ancón", "anp_sect": " ", "zr_ubpo": "", "anp_suleg": 2193.01, "zr_balec": "R.M. N° 275-2011-MINAM", "zr_felec": 1322456400000, "zr_balem": "R.M. N° 140-2013-MINAM", "zr_felem": 1368162000000, "zr_obs": null, "met_link": null, "zr_orden": 17, "zr_id": 109}, "geometry": {"type": "Polygon", "coordinates": [[[-77.18170309299995, -11.716277290999926], [-77.18126363899995, -11.71638080799994], [-77.18105074899995, -11.716562446999944], [-77.18087691999995, -11.716859321999948], [-77.18069527999995, -11.717417915999931], [-77.18060738899999, -11.717867134999949], [-77.18045699899994, -11.71826557299994], [-77.18037106099996, -11.718519478999951], [-77.18023824899996, -11.718773384999963], [-77.17994137299996, -11.719253852999941], [-77.17953707699996, -11.71946674399993], [-77.17917770199995, -11.719912055999941], [-77.17879879599997, -11.720529243999977], [-77.17883395199993, -11.720890571999973], [-77.17878512399994, -11.72148627599995], [-77.17867379599994, -11.721767525999951], [-77.17822848399999, -11.722484322999946], [-77.17838668599995, -11.72299408799995], [-77.17841012399998, -11.723462837999932], [-77.17816598399997, -11.72383588599996], [-77.17794918699997, -11.724015571999928], [-77.17758199899998, -11.724331979999931], [-77.17693160799996, -11.725080024999954], [-77.17654488999995, -11.725435493999953], [-77.17609176499997, -11.72583588499998], [-77.17586715499993, -11.726119087999962], [-77.17543746699994, -11.726546821999932], [-77.17514449899994, -11.726828072999979], [-77.17489645299997, -11.727115182999967], [-77.17462106099998, -11.727581978999979], [-77.17442379599999, -11.727919868999948], [-77.17407613899996, -11.728398384999934], [-77.17384957699994, -11.728826119999951], [-77.17359762299998, -11.729212837999967], [-77.17330465599997, -11.72949213499993], [-77.17296871699995, -11.729845649999959], [-77.17269137399995, -11.730187446999935], [-77.17249996799995, -11.730472602999953], [-77.17214449899996, -11.73103900999996], [-77.17188277899999, -11.731662056999937], [-77.17160348199997, -11.732111275999955], [-77.17133785899995, -11.732685494999942], [-77.17110934199997, -11.73304096299995], [-77.17068160799994, -11.734046822999971], [-77.17049606199998, -11.734374946999935], [-77.17032223299998, -11.734790962999966], [-77.17010348299993, -11.735328071999959], [-77.16992965599997, -11.73569721299998], [-77.16978512399999, -11.736138619999963], [-77.16956246699993, -11.736747994999973], [-77.16950582699997, -11.73713861999994], [-77.16904488899996, -11.73768158699994], [-77.16837301399994, -11.738699166999936], [-77.16785152999995, -11.739974557999972], [-77.16760543699996, -11.741310494999937], [-77.16741793699998, -11.742958932999954], [-77.16762887299996, -11.743738228999973], [-77.16798629499993, -11.74439057199993], [-77.16864449799994, -11.745894478999958], [-77.16946871699997, -11.747074165999948], [-77.16972262399997, -11.747640571999966], [-77.16982027999995, -11.748212837999972], [-77.16973434299996, -11.748863227999948], [-77.16973434299996, -11.749552681999944], [-77.16994332699994, -11.750039009999966], [-77.17038668499998, -11.750847603999944], [-77.17054098399996, -11.751148385999954], [-77.17079879599999, -11.751591743999938], [-77.17086520199996, -11.751853462999975], [-77.17108590499998, -11.75250190099996], [-77.17114449999997, -11.752912055999957], [-77.17120504599995, -11.753408149999927], [-77.17132809299994, -11.754273384999976], [-77.17130660899994, -11.755234321999978], [-77.17128317099997, -11.75601361899993], [-77.17138082599996, -11.756402290999972], [-77.17149410899998, -11.75678705599995], [-77.17154879599997, -11.75709369699996], [-77.17166793599995, -11.75732807299994], [-77.17182613799997, -11.757759713999974], [-77.17191207699994, -11.758066353999936], [-77.17198043599996, -11.759044868999979], [-77.17197848299998, -11.75970697699995], [-77.17199215599999, -11.760226509999939], [-77.17185934199995, -11.76097065099998], [-77.17163668599994, -11.76160932099998], [-77.17149410799993, -11.762205024999957], [-77.17153902999996, -11.762945258999935], [-77.17135738899998, -11.763539009999931], [-77.17128512399995, -11.763994086999958], [-77.17137301399998, -11.764427681999962], [-77.17147848399998, -11.764849556999934], [-77.17168160699998, -11.76541986899997], [-77.17193160699998, -11.765908149999973], [-77.17231637399993, -11.766581978999966], [-77.17270504599998, -11.76744330799994], [-77.17290621699993, -11.767695258999936], [-77.17312301399994, -11.768138619999945], [-77.17322848399994, -11.768431588999931], [-77.17361129699998, -11.769402290999949], [-77.17413863999997, -11.770455024999933], [-77.17469723299996, -11.771218697999927], [-77.17508199799994, -11.77165424499998], [-77.17519527999997, -11.772087837999948], [-77.17540426499994, -11.772285103999934], [-77.17573238999995, -11.772679634999974], [-77.17602085999994, -11.772809104999965], [-77.17637298399995, -11.77264658699994], [-77.17671156499995, -11.77240957999993], [-77.17700613099998, -11.772396036999965], [-77.17719332799999, -11.772589790999973], [-77.17717770199994, -11.772831978999932], [-77.17692965499998, -11.77306635399998], [-77.17662106099993, -11.773576119999973], [-77.17679488899995, -11.773806587999957], [-77.17706246799997, -11.774095650999982], [-77.17736324899994, -11.77436322799997], [-77.17767965499996, -11.774658149999937], [-77.17831442199997, -11.775173774999928], [-77.17862301399998, -11.775333930999977], [-77.17894723299997, -11.775492134999979], [-77.17933785899999, -11.775669869999945], [-77.17984762299994, -11.775826119999977], [-77.17995113999996, -11.775634713999978], [-77.18013863899995, -11.77552338399994], [-77.18030660799997, -11.775742134999973], [-77.18060543699994, -11.775722602999963], [-77.18102535899999, -11.775622994999935], [-77.18120309199998, -11.775456978999955], [-77.18126168599997, -11.775132758999973], [-77.18161910899994, -11.77516791599993], [-77.18183199899994, -11.775062446999982], [-77.18194723299996, -11.77483783799994], [-77.18194918599994, -11.774560493999957], [-77.18185934199994, -11.774361274999933], [-77.18182809299998, -11.774179634999939], [-77.18181051499994, -11.773910103999981], [-77.18212496699994, -11.773654244999932], [-77.18229293599995, -11.773497993999968], [-77.18272067099997, -11.773771430999943], [-77.18298043599998, -11.773958931999971], [-77.18325973299994, -11.774050727999963], [-77.18362692099998, -11.774355415999935], [-77.18399605999997, -11.77429486899996], [-77.18441988899997, -11.774257758999966], [-77.18480074899998, -11.774191352999935], [-77.18534566999995, -11.77410541599994], [-77.18572848399998, -11.774040961999958], [-77.18597262399999, -11.774027290999982], [-77.18669332699994, -11.773978462999935], [-77.18710348299999, -11.773667914999976], [-77.18706246699998, -11.773271430999955], [-77.18711910799993, -11.772927682999978], [-77.18729684199997, -11.77271869699996], [-77.18758199799998, -11.772896430999936], [-77.18790621699998, -11.772908150999967], [-77.18813668599995, -11.772706977999974], [-77.18820699799994, -11.772369087999948], [-77.18837496799995, -11.772138618999975], [-77.18846090399995, -11.771826119999957], [-77.18878902999995, -11.771429633999958], [-77.18861324799997, -11.77090424399995], [-77.18869723299997, -11.77057416599996], [-77.18923434299995, -11.77072064999993], [-77.18975778099997, -11.770783150999932], [-77.19008395099996, -11.770732368999973], [-77.19086715499998, -11.770134713999937], [-77.19079879599997, -11.769792915999972], [-77.19113277999998, -11.769029243999967], [-77.19107223299994, -11.768703072999926], [-77.19086129599998, -11.768253852999976], [-77.19103707599999, -11.768062446999977], [-77.19135543699997, -11.767919868999968], [-77.19156832799996, -11.76786908799994], [-77.19183590499995, -11.768046820999928], [-77.19216012399994, -11.767935493999971], [-77.19249020099994, -11.767810492999956], [-77.19283981199999, -11.767740181999955], [-77.19305660699996, -11.767558540999971], [-77.19323629599995, -11.767339790999927], [-77.19346090499994, -11.76723627499996], [-77.19374606099996, -11.767134712999962], [-77.20820608099996, -11.693718729999944], [-77.19920504499999, -11.693796821999968], [-77.19909957699997, -11.69405463499993], [-77.19896871699996, -11.694275337999954], [-77.19880660799998, -11.694622994999975], [-77.19870895199995, -11.694917916999941], [-77.19859957699998, -11.695199165999952], [-77.19851559199998, -11.695497993999936], [-77.19833981099998, -11.695876900999963], [-77.19808395199993, -11.69618940099997], [-77.19779879599997, -11.696443305999935], [-77.19761715499999, -11.696652290999964], [-77.19743551399995, -11.69689838499994], [-77.19711520099997, -11.69717768199996], [-77.19666988999995, -11.697644478999962], [-77.19641988899997, -11.69791010399996], [-77.19600973299998, -11.698201118999975], [-77.19573629599995, -11.698412055999938], [-77.19552731199997, -11.698640571999931], [-77.19505856099994, -11.699150337999981], [-77.19480660899995, -11.699312445999965], [-77.19452731099994, -11.699560494999957], [-77.19434567099995, -11.699794868999959], [-77.19390231199998, -11.700439400999926], [-77.19362106099999, -11.700958931999935], [-77.19325777999995, -11.701339790999953], [-77.19295895199997, -11.70160346199998], [-77.19241988899995, -11.702070258999981], [-77.19192379499998, -11.702615181999931], [-77.19163473299994, -11.702945260999968], [-77.19144918599994, -11.70313471299994], [-77.19108785899994, -11.703517525999928], [-77.19076754499997, -11.70383783899996], [-77.19038863899993, -11.704246040999976], [-77.19018356199996, -11.704482368999948], [-77.18993356099998, -11.704695259999937], [-77.18973043699998, -11.704910102999975], [-77.18943746699995, -11.705220649999944], [-77.18921480999995, -11.705574166999952], [-77.18901363899994, -11.705855415999963], [-77.18877926399995, -11.706124946999978], [-77.18853512399994, -11.70640229099996], [-77.18820309299997, -11.706792915999927], [-77.18802731099998, -11.707119088999946], [-77.18778121799994, -11.707564399999967], [-77.18739645199997, -11.708091744999933], [-77.18727340499998, -11.70849799399997], [-77.18712106199996, -11.708806588999948], [-77.18689645099994, -11.709162056999958], [-77.18666403099996, -11.709558540999979], [-77.18640426399998, -11.70986127499998], [-77.18613473299996, -11.71014252499998], [-77.18584957699994, -11.710398385999952], [-77.18542965599994, -11.710763618999977], [-77.18509371799996, -11.711066353999968], [-77.18472848199997, -11.711355415999947], [-77.18438473299994, -11.711648385999979], [-77.18394918599995, -11.71193158799997], [-77.18360934199995, -11.712214789999962], [-77.18354879599997, -11.712566354999979], [-77.18349606099997, -11.713232368999968], [-77.18330270299998, -11.713626899999952], [-77.18319332599998, -11.713833931999943], [-77.18303707799998, -11.714115181999944], [-77.18290231199995, -11.715039009999941], [-77.18276168599994, -11.715414008999971], [-77.18240230999999, -11.715872994999927], [-77.18170309299995, -11.716277290999926]]]}}, {"type": "Feature", "properties": {"objectid": 17262, "anp_gid": 104, "zr_codi": "ZR15", "zr_nomb": "Reserva Paisajística Cerro Khapia", "anp_sect": " ", "zr_ubpo": "Puno", "anp_suleg": 18313.79, "zr_balec": "D.S. N° 008-2011-MINAM", "zr_felec": 1306558800000, "zr_balem": "R.P. N° 096-2011-SERNANP", "zr_felem": 1306818000000, "zr_obs": null, "met_link": null, "zr_orden": 15, "zr_id": 108}, "geometry": {"type": "Polygon", "coordinates": [[[-69.18219792499997, -16.385594590999972], [-69.18309710399996, -16.383672799999943], [-69.18695861999998, -16.385970457999974], [-69.18881638699997, -16.38684839499996], [-69.18825524199997, -16.38313108899996], [-69.18785910699995, -16.38037820699998], [-69.18874098499998, -16.37739420099996], [-69.18951484899998, -16.37642576899998], [-69.19382289499998, -16.377601752999965], [-69.19533533799995, -16.374047253999947], [-69.19580837399997, -16.371944731999974], [-69.19775124599994, -16.37225217599996], [-69.19863902199995, -16.37666577699997], [-69.20599945999999, -16.380473147999965], [-69.21376613099994, -16.377144002999955], [-69.21871162299993, -16.370888186999935], [-69.22180108499998, -16.367920545999937], [-69.22293698899995, -16.365349170999934], [-69.22145810799998, -16.36295674699994], [-69.22597217299995, -16.36091152399996], [-69.22609922699996, -16.358871138999973], [-69.21827347799996, -16.35706857899993], [-69.21278810499996, -16.35647492399994], [-69.20967842999994, -16.357925172999956], [-69.20844951599997, -16.353710198999977], [-69.20104837899999, -16.35429884599995], [-69.19660167599994, -16.35472114399994], [-69.20124927199998, -16.351425449999965], [-69.20725742699994, -16.34778561199994], [-69.20801641099996, -16.346665884999936], [-69.20359555399995, -16.346729322999977], [-69.20568431199996, -16.34450370899998], [-69.21043471299998, -16.34175536099997], [-69.21311687199994, -16.340177344999972], [-69.21898774099998, -16.338274543999944], [-69.22242400899995, -16.334210239999948], [-69.21744062099998, -16.332612448999953], [-69.20959950099996, -16.333166132999963], [-69.20659130099995, -16.330712457999937], [-69.21258016399997, -16.32774073099995], [-69.21749218699995, -16.32276792999994], [-69.21094488399996, -16.32438461299995], [-69.21123969099995, -16.321162611999966], [-69.21055193799998, -16.317787186999965], [-69.20431896399998, -16.319904803999975], [-69.20119052099994, -16.320169066999938], [-69.20091736299997, -16.317612245999953], [-69.19561955399996, -16.32081732399996], [-69.18480145699993, -16.32923255099996], [-69.18653278799997, -16.322835341999962], [-69.19142534099996, -16.319519664999973], [-69.19507006999999, -16.312634371999934], [-69.20067123099994, -16.307758408999973], [-69.20034647399996, -16.305247013999974], [-69.20278413299997, -16.303707418999977], [-69.20303633099996, -16.30036369299995], [-69.19898025799995, -16.302183165999963], [-69.19460346799997, -16.305579180999928], [-69.19292272799998, -16.307204505999948], [-69.19080348499995, -16.30350522799995], [-69.19303657999995, -16.301015089999964], [-69.19684204499998, -16.29632382999995], [-69.19867970399997, -16.293468145999952], [-69.19391390799996, -16.293927468999982], [-69.19016679899994, -16.29441569399995], [-69.19031074599997, -16.292072092999945], [-69.18713031199997, -16.29253941299993], [-69.18349213099998, -16.295708090999938], [-69.18055218199999, -16.29893451099997], [-69.17728911999995, -16.300101006999967], [-69.17829159499996, -16.29694687899996], [-69.17950548999994, -16.293076045999953], [-69.18174473999994, -16.291953879999937], [-69.18400122499997, -16.287059773999943], [-69.18211806499994, -16.283783360999962], [-69.18026244299995, -16.281485953999947], [-69.17521507199996, -16.28585187799996], [-69.16898940399994, -16.291081326999972], [-69.16673757799998, -16.292016959999955], [-69.16873852399993, -16.285686193999936], [-69.16816483099996, -16.280274861999942], [-69.16626483599998, -16.275402007999958], [-69.16336527299995, -16.274931917999936], [-69.16340012399996, -16.281532823999953], [-69.16289198499999, -16.28810946599998], [-69.16113283699997, -16.294611393999958], [-69.15856560099996, -16.297899874999928], [-69.15837021999994, -16.293902745999958], [-69.15642186399998, -16.285038079999936], [-69.15416967799996, -16.28058945099997], [-69.15113480199994, -16.281320817999926], [-69.14869894699996, -16.28468728699994], [-69.14594176899993, -16.286151721999943], [-69.14306548399998, -16.28863737599994], [-69.13941393099998, -16.283197102999964], [-69.13602386199994, -16.283543467999948], [-69.13625938399997, -16.278974784999946], [-69.13508283199997, -16.27630173299997], [-69.13142408699997, -16.281174961999966], [-69.12941264199998, -16.285676660999968], [-69.12676883299997, -16.281152308999935], [-69.12435213099997, -16.27680226299998], [-69.12373003699997, -16.282081627999958], [-69.12278825299995, -16.289594000999955], [-69.12328402699995, -16.292689781999968], [-69.12464380199998, -16.29744500499993], [-69.12697754599998, -16.30135112599993], [-69.12295328199997, -16.300420833999965], [-69.11663557199995, -16.29545188399993], [-69.11153075099998, -16.291247261999956], [-69.10885096499999, -16.291144876999965], [-69.10987087699993, -16.294383435999976], [-69.11496960499994, -16.298494894999976], [-69.11352573499994, -16.300108527999953], [-69.10947909999999, -16.30121265599996], [-69.10905759699995, -16.30325684999997], [-69.10268444799993, -16.304218658999957], [-69.10056710899994, -16.307121019999954], [-69.09542143199997, -16.306229335999944], [-69.09413426699996, -16.307517410999935], [-69.09307329499995, -16.309104244999958], [-69.09416240699994, -16.31135981899996], [-69.09596971199994, -16.313557205999928], [-69.09479635199995, -16.314099329999976], [-69.09846447699994, -16.318969107999976], [-69.09417880099994, -16.317257595999934], [-69.09249144099994, -16.31833529299996], [-69.09003937899996, -16.318522307999956], [-69.08429559499996, -16.319523251999954], [-69.08732578199994, -16.323208405999935], [-69.09058469599995, -16.32668259999997], [-69.09092645899995, -16.328015238999967], [-69.08473721699994, -16.33005057699995], [-69.08555639399998, -16.332412972999975], [-69.09176714799997, -16.33762135799998], [-69.09530072199993, -16.338040879999937], [-69.08939750099995, -16.34024708299995], [-69.08085503099994, -16.334994153999958], [-69.08019320999995, -16.335908271999926], [-69.07767021299998, -16.33675925899996], [-69.07450914399993, -16.336121713999944], [-69.06915057699996, -16.336554299999932], [-69.06018272099993, -16.337984845999927], [-69.05879851499998, -16.341839129999983], [-69.05681279899994, -16.344105398999943], [-69.05588610699994, -16.345527475999972], [-69.06118183099994, -16.34535379199997], [-69.06413266599998, -16.34583357799994], [-69.06244364599996, -16.349461791999943], [-69.06574626399998, -16.351471126999968], [-69.06487550899993, -16.35178716799993], [-69.05849966799997, -16.351930872999958], [-69.05308917099995, -16.35283740099993], [-69.04755293599999, -16.353604419999954], [-69.05008966899999, -16.35568667299998], [-69.05410927899999, -16.357575423999947], [-69.05551471299998, -16.360535510999966], [-69.05269095499995, -16.364696400999946], [-69.04911958199995, -16.367830561999938], [-69.05323858199995, -16.370361239999966], [-69.05114579899998, -16.373482036999974], [-69.04825787199997, -16.37563019199996], [-69.05807476199993, -16.374379276999946], [-69.06138483699993, -16.372684585999934], [-69.06682670299995, -16.368085409999935], [-69.07102189399995, -16.36419164299997], [-69.07592260599995, -16.36213511899996], [-69.07265356499994, -16.367873026999973], [-69.07285618499998, -16.369854002999944], [-69.07820141899998, -16.36895395299996], [-69.08705988699995, -16.36523120199996], [-69.08975584199999, -16.36492478699995], [-69.08081467199997, -16.372535914999958], [-69.07670205599999, -16.37418329199994], [-69.07435767499999, -16.37722024599998], [-69.07126734799994, -16.38052347699994], [-69.07218495899997, -16.385580366999932], [-69.07486979599997, -16.38405608499994], [-69.08167016699997, -16.382194010999967], [-69.08964446699997, -16.379391685999963], [-69.08867991899996, -16.381634575999954], [-69.08185046499995, -16.38451000899994], [-69.07695397099997, -16.391177375999973], [-69.07937834099994, -16.392259294999974], [-69.08407592499998, -16.392263887999945], [-69.08409928499998, -16.39606748799997], [-69.08740538799998, -16.398595730999943], [-69.08832862099996, -16.40067320399993], [-69.08878167899996, -16.403270403999954], [-69.09336668599997, -16.40192958399996], [-69.09636980699997, -16.40038554299997], [-69.09811888399997, -16.402248251999936], [-69.09735278699998, -16.40394190099994], [-69.09495655599994, -16.411175854999954], [-69.09689388799995, -16.413432813999975], [-69.10112611699998, -16.41326430199996], [-69.10357012599997, -16.41104368899994], [-69.10121436499998, -16.416561616999957], [-69.10532728199996, -16.414212075999956], [-69.11355915399997, -16.407353169999965], [-69.11614037399994, -16.406134968999936], [-69.11273326399998, -16.41219664099998], [-69.10879559999995, -16.41736618799996], [-69.10519165199997, -16.420465322999974], [-69.10570896999997, -16.421532059999947], [-69.10812727099994, -16.42405489799995], [-69.11384973099996, -16.417746896999972], [-69.11491932499996, -16.41801778699994], [-69.11720348099993, -16.421947856999964], [-69.11946826699995, -16.421617432999938], [-69.12183906799999, -16.41932369799997], [-69.12355580999997, -16.42302269199996], [-69.12424464999998, -16.428376877999938], [-69.12767659899998, -16.431789236999975], [-69.13076818699994, -16.436478200999943], [-69.13771802399998, -16.438209076999954], [-69.14120801599995, -16.438547384999936], [-69.14677954099994, -16.439050433999967], [-69.14984166499994, -16.438775712999927], [-69.15176971099999, -16.43767958199993], [-69.15259399599995, -16.43452880999996], [-69.15371040999997, -16.43185730299996], [-69.15306475799997, -16.427678664999974], [-69.15273503799995, -16.42370454899998], [-69.15173365999993, -16.418624507999937], [-69.15275396699997, -16.417118332999962], [-69.15513734999996, -16.42039006999994], [-69.15783789399995, -16.41916602699996], [-69.15880453499994, -16.41587056999998], [-69.15973899399995, -16.418167293999943], [-69.16160587699994, -16.418062266999982], [-69.16536440399994, -16.41335635799993], [-69.16345953299998, -16.40896412199993], [-69.16311423499997, -16.394704269999977], [-69.16443908499997, -16.393216602999928], [-69.16643059699999, -16.401860389999968], [-69.16813429699994, -16.407570437999937], [-69.17142387599995, -16.407637207999926], [-69.17310068999996, -16.403902932999927], [-69.17370555599996, -16.40289076399995], [-69.17552709599994, -16.40179332699995], [-69.17528054799993, -16.39807455199997], [-69.17751443199995, -16.39868206699998], [-69.17887804599997, -16.394815481999956], [-69.18014231299998, -16.39469064399998], [-69.18128288899999, -16.39995430999994], [-69.18514640499995, -16.398004713999967], [-69.18489613399998, -16.39489489099998], [-69.18443407499996, -16.389836309999964], [-69.18219792499997, -16.385594590999972]]]}}, {"type": "Feature", "properties": {"objectid": 17280, "anp_gid": 97, "zr_codi": "ZR01", "zr_nomb": "Chancaybaños", "anp_sect": " ", "zr_ubpo": "Cajamarca", "anp_suleg": 2628.0, "zr_balec": "D.S. N° 001-1996-AG", "zr_felec": 824274000000, "zr_balem": " ", "zr_felem": null, "zr_obs": null, "met_link": null, "zr_orden": 1, "zr_id": 101}, "geometry": {"type": "Polygon", "coordinates": [[[-78.91652335899994, -6.584994937999966], [-78.91694107099994, -6.585020386999929], [-78.91817778299998, -6.585450435999974], [-78.91930752299999, -6.585518426999954], [-78.91968871099994, -6.585158403999969], [-78.92031273699996, -6.585097720999954], [-78.92125105699995, -6.58554460199997], [-78.92326807899997, -6.585290825999948], [-78.92465124499995, -6.585287535999953], [-78.92771695499994, -6.585029056999929], [-78.92968146299995, -6.584359180999968], [-78.93084417999995, -6.583524963999935], [-78.93119576199996, -6.583253493999962], [-78.93164978699997, -6.582767194999974], [-78.93234214399996, -6.58148633199994], [-78.93325025999997, -6.580495649999932], [-78.93364903099996, -6.580253209999967], [-78.93414671799997, -6.580137742999966], [-78.93480489499996, -6.5802101109999285], [-78.93556503099995, -6.580378652999968], [-78.93694666499994, -6.580745973999967], [-78.93753546199997, -6.580459111999971], [-78.93919318399998, -6.579643275999956], [-78.94089304899995, -6.57956891799995], [-78.94268126799994, -6.579992140999934], [-78.94347731599998, -6.579868850999958], [-78.94534102099993, -6.579523939999945], [-78.94556672599998, -6.579597190999948], [-78.94594818399997, -6.58016760299995], [-78.94605917499996, -6.580756389999976], [-78.94584649499996, -6.581912688999978], [-78.94587264899997, -6.582147847999977], [-78.94691784999998, -6.58299290399998], [-78.94719657099995, -6.58336470699993], [-78.94724047199998, -6.583681301999945], [-78.94710967399999, -6.584711372999948], [-78.94728054499996, -6.5849290459999565], [-78.94852385799999, -6.5859647649999715], [-78.94874063699996, -6.5860108569999625], [-78.95105600899996, -6.585758190999968], [-78.95158934499995, -6.585769418999973], [-78.95327038399995, -6.585884797999938], [-78.95437532999995, -6.585392099999979], [-78.95634168599997, -6.584270090999951], [-78.95747237999996, -6.584111986999972], [-78.95803378999994, -6.584117161999927], [-78.95923518899997, -6.584128233999934], [-78.96086604899995, -6.583248924999964], [-78.96103661899997, -6.583070677999956], [-78.96286969199997, -6.581846779999978], [-78.96476060899994, -6.5814838239999744], [-78.96568285899997, -6.581451416999926], [-78.96416774399995, -6.576111337999976], [-78.96362133899999, -6.574870560999955], [-78.96374228299999, -6.574030284999935], [-78.96368095199995, -6.573550887999943], [-78.96333056099996, -6.573016070999927], [-78.96338870199997, -6.572058011999957], [-78.96313900199993, -6.571216226999979], [-78.96285108299998, -6.570880555999963], [-78.96172432099996, -6.570080402999963], [-78.96163465699993, -6.56989922799994], [-78.96203727499994, -6.568707518999929], [-78.96216644699996, -6.568066167999973], [-78.96188279699999, -6.566681814999981], [-78.96156801799998, -6.56628275099996], [-78.95952945199997, -6.565180548999933], [-78.95941270599997, -6.564990222999938], [-78.95936846399997, -6.564754988999937], [-78.95950744999999, -6.563923828999975], [-78.95947254199996, -6.563616309999929], [-78.95868090099998, -6.562663832999931], [-78.95819727899999, -6.561549880999962], [-78.95755843599994, -6.560814997999955], [-78.95668286399996, -6.560495011999933], [-78.95567923999994, -6.5594639469999265], [-78.95555764599999, -6.559324201999971], [-78.95511974599998, -6.558234165999977], [-78.95481663599998, -6.557042978999959], [-78.95358177199995, -6.556161015999976], [-78.95215958599994, -6.5568784479999636], [-78.95160023199998, -6.556604949999951], [-78.95133830199995, -6.556549636999932], [-78.94921330999995, -6.556703680999931], [-78.94848246299995, -6.556366194999953], [-78.94813608299995, -6.55625921799998], [-78.94689262799994, -6.556079435999948], [-78.94501226799997, -6.556098856999938], [-78.94275124399996, -6.556360799999936], [-78.94263210499997, -6.556285651999929], [-78.94118560599998, -6.556788314999949], [-78.94090816999994, -6.556937132999963], [-78.93925967199993, -6.557452613999942], [-78.93904027699995, -6.557493694999948], [-78.93804379799997, -6.558004899999958], [-78.93718410199995, -6.558227373999955], [-78.93637585299996, -6.55912808599993], [-78.93595876399996, -6.559433740999964], [-78.93391472099995, -6.559687491999966], [-78.93153651099993, -6.5598675319999415], [-78.93050446199999, -6.560233925999967], [-78.92912714999994, -6.561023786999954], [-78.92809621899994, -6.561118969999939], [-78.92580413999997, -6.562329931999955], [-78.92462819899998, -6.562514908999958], [-78.92368770099995, -6.56260141599995], [-78.92323560599993, -6.562626663999936], [-78.92220452499998, -6.5627579939999805], [-78.92091346899997, -6.562363905999973], [-78.91873087399995, -6.561152487999948], [-78.91802901499995, -6.560372109999946], [-78.91672195899997, -6.55948073299993], [-78.91579250099994, -6.559088137999936], [-78.91378741699998, -6.558672986999966], [-78.91332670299994, -6.558598747999952], [-78.91081157299999, -6.5591035669999656], [-78.91057658299997, -6.559093547999964], [-78.91012517299998, -6.5589560629999255], [-78.90881738599995, -6.558245471999953], [-78.90853840599993, -6.557945980999932], [-78.90797140799998, -6.55734696199994], [-78.90746945999996, -6.556323322999958], [-78.90496514299997, -6.554242661999979], [-78.90394826099998, -6.553144550999946], [-78.90368089399999, -6.552230374999965], [-78.90404786499994, -6.550939158999938], [-78.90391025599996, -6.549257107999949], [-78.90352605699997, -6.54817972099994], [-78.90313515999998, -6.546541813999966], [-78.90305750399995, -6.545655550999925], [-78.90265243799996, -6.545247050999933], [-78.90245493299994, -6.544920778999938], [-78.90247889799997, -6.543510609999942], [-78.90196058699996, -6.54208009599995], [-78.90140280099996, -6.5414449549999745], [-78.89934686499998, -6.540243063999981], [-78.89902323199993, -6.539816823999956], [-78.89832781499996, -6.53750867399998], [-78.89777971999996, -6.536719888999926], [-78.89756410899997, -6.53632297799993], [-78.89665706699998, -6.534604340999977], [-78.89578443199997, -6.533118551999962], [-78.89552638599997, -6.533014067999943], [-78.89443897399997, -6.533440373999952], [-78.89338835799998, -6.534079998999971], [-78.89263694499994, -6.534438335999937], [-78.89246452299994, -6.534600335999926], [-78.89186556599998, -6.535167355999931], [-78.89025865699995, -6.536833042999945], [-78.88793123999994, -6.540023473999952], [-78.88771156899998, -6.5406734389999315], [-78.88760925299994, -6.5413600579999525], [-78.88757365299995, -6.543006504999937], [-78.88761110799999, -6.545220190999942], [-78.88742675299994, -6.546069184999965], [-78.88671728899999, -6.547114851999936], [-78.88602365499997, -6.548693949999972], [-78.88464570199994, -6.549637355999948], [-78.88268252499995, -6.552169340999967], [-78.88209234399994, -6.552790615999925], [-78.88099197499997, -6.553434380999931], [-78.88096865499995, -6.553454836999947], [-78.88058637299997, -6.5540769869999735], [-78.88062778899996, -6.554972127999974], [-78.88098636899997, -6.557821262999937], [-78.88061849199994, -6.5593113179999705], [-78.87971468899997, -6.561413828999946], [-78.87890582399996, -6.5624409719999335], [-78.87747346599997, -6.563411230999975], [-78.87680110399998, -6.56422198599995], [-78.87662736299995, -6.564691330999949], [-78.87766681799997, -6.566847266999957], [-78.87834251799995, -6.567383492999966], [-78.87876319899993, -6.568370639999955], [-78.87880402999997, -6.569401378999942], [-78.87919226199995, -6.570522702999938], [-78.87927733999999, -6.570768431999966], [-78.87937221999994, -6.571843799999954], [-78.87941814399994, -6.571835266999926], [-78.88039854299996, -6.571908888999928], [-78.88076432899999, -6.572014357999933], [-78.88123192499995, -6.57215513999995], [-78.88141234999995, -6.57221691899997], [-78.88148200999996, -6.5722524819999535], [-78.88211402699994, -6.572428087999981], [-78.88221844799995, -6.572436302999961], [-78.88235142499997, -6.572417218999931], [-78.88243131099995, -6.572389520999934], [-78.88262626699998, -6.572288722999929], [-78.88271094899994, -6.572224883999979], [-78.88310023399998, -6.571869854999932], [-78.88316700599995, -6.571824207999953], [-78.88323892399995, -6.571787545999939], [-78.88342210199994, -6.571768070999951], [-78.88366337699995, -6.571748144999958], [-78.88486770399999, -6.5717478119999555], [-78.88512914499995, -6.571709676999944], [-78.88568293699996, -6.5714216039999656], [-78.88860527399999, -6.571303564999937], [-78.88922706899996, -6.571325804999958], [-78.88941398099996, -6.571351427999957], [-78.89337901099998, -6.572448766999969], [-78.89360758999999, -6.5725372429999425], [-78.89694363899997, -6.573413802999937], [-78.89857838599994, -6.573707921999926], [-78.89906593299997, -6.573875603999966], [-78.89926179699995, -6.573964331999946], [-78.89943044599994, -6.574107424999966], [-78.89979594599998, -6.574465595999925], [-78.90086424499998, -6.575756938999973], [-78.90108246099999, -6.576035027999978], [-78.90133289699997, -6.576394094999955], [-78.90139980699996, -6.576510904999964], [-78.90169889299995, -6.577176460999965], [-78.90182157399994, -6.577356012999928], [-78.90267667399996, -6.578143580999949], [-78.90279935499996, -6.578250928999978], [-78.90315252199997, -6.578546011999947], [-78.90393549499998, -6.578909937999981], [-78.90404224199995, -6.578927153999928], [-78.90505661699996, -6.579307318999952], [-78.90606662199997, -6.579705566999962], [-78.90719162499994, -6.58031049799996], [-78.90723858199993, -6.58032818099997], [-78.90734582199997, -6.580336367999962], [-78.90817440699999, -6.580185472999972], [-78.90864327399999, -6.580272056999945], [-78.90872393199999, -6.580271424999978], [-78.90966257499997, -6.580128692999949], [-78.90979843999997, -6.58011860299996], [-78.91001235499994, -6.580134977999933], [-78.91014025399994, -6.580188128999964], [-78.91110372599996, -6.580622829999925], [-78.91117282199997, -6.58065838999994], [-78.91174146399999, -6.581168384999955], [-78.91285972099996, -6.582423182999946], [-78.91298797599995, -6.582593660999976], [-78.91333276599994, -6.583114432999935], [-78.91339185099997, -6.583168121999961], [-78.91377815799996, -6.583300473999941], [-78.91458827899999, -6.583528779999938], [-78.91488616699996, -6.58353546799998], [-78.91496689599995, -6.583543859999963], [-78.91601334999996, -6.5836981049999395], [-78.91606312799996, -6.583715764999965], [-78.91650069699995, -6.583983092999972], [-78.91655188599998, -6.584036843999968], [-78.91660723899997, -6.584189840999954], [-78.91659948999995, -6.584352358999979], [-78.91652335899994, -6.584994937999966]]]}}, {"type": "Feature", "properties": {"objectid": 17281, "anp_gid": 98, "zr_codi": "ZR03", "zr_nomb": "Santiago Comaina", "anp_sect": " ", "zr_ubpo": "Amazonas, Loreto", "anp_suleg": 398449.44, "zr_balec": "D.S. N° 005-1999-AG", "zr_felec": 916894800000, "zr_balem": "D.S. N° 023-2007-AG, D.S. N° 029-2000-AG (06/07/2000)", "zr_felem": 1186635600000, "zr_obs": null, "met_link": null, "zr_orden": 3, "zr_id": 102}, "geometry": {"type": "Polygon", "coordinates": [[[-77.71320024099998, -3.553048518999958], [-77.78700132499995, -3.2423473349999767], [-77.82438432899994, -3.0961898579999456], [-77.82360560699993, -3.0931125999999267], [-77.82155830999994, -3.090574265999976], [-77.81943834099997, -3.0893319269999324], [-77.81680566099999, -3.088468693999971], [-77.81330548399995, -3.087065892999931], [-77.81148429299998, -3.085483232999934], [-77.81083485999994, -3.083502446999944], [-77.81052285099997, -3.0816317819999313], [-77.80867504299994, -3.080775985999935], [-77.80865696099994, -3.0793224119999536], [-77.80982046999998, -3.0767994009999597], [-77.81020713399994, -3.073695088999955], [-77.81096297199997, -3.0717039249999516], [-77.81135798999998, -3.069971925999937], [-77.81239983199998, -3.068214310999963], [-77.81427750499995, -3.066855405999945], [-77.81633357499999, -3.0646088319999762], [-77.81728122999994, -3.0628749539999376], [-77.81843190399997, -3.0599877689999744], [-77.81935317199998, -3.057045195999933], [-77.81995445199993, -3.05483886199994], [-77.82098962599997, -3.0516711349999355], [-77.82185385799994, -3.0492971819999752], [-77.82234273599994, -3.0470772319999355], [-77.82227823399995, -3.0442275699999755], [-77.82204447699996, -3.0421338449999666], [-77.82189828599996, -3.0389592469999798], [-77.82294437599995, -3.033347686999946], [-77.82557883299995, -3.03130381699998], [-77.82821271899996, -3.0290447819999713], [-77.83040249899994, -3.0261079329999347], [-77.83139195999996, -3.024336157999926], [-77.83201781399998, -3.021742910999933], [-77.83229008699999, -3.0185242089999633], [-77.83297347999996, -3.0161077329999557], [-77.83424693699999, -3.0138044729999365], [-77.83555261399994, -3.0118234739999252], [-77.83706075799995, -3.0094172159999744], [-77.83822490299997, -3.0071477239999354], [-77.83921100599997, -3.0040801839999745], [-77.84022132299998, -3.00117993799995], [-77.71412744799994, -2.9565940699999373], [-77.70470260799993, -2.9674055669999575], [-77.71076849599996, -2.9912674239999433], [-77.70112038599996, -2.998344928999927], [-77.69363368099994, -3.0004197889999773], [-77.69685533099994, -3.002912849999973], [-77.70028172499997, -3.0035499259999483], [-77.70079098699995, -3.0075369239999645], [-77.69837716299998, -3.010522175999938], [-77.69470172199993, -3.0130753999999342], [-77.69377545099996, -3.0155357119999735], [-77.69143135799999, -3.017875219999951], [-77.68709302399998, -3.01782383799997], [-77.68474504999995, -3.0166580399999248], [-77.68228763599996, -3.0193564909999395], [-77.68100685099995, -3.022745441999973], [-77.67634690299997, -3.019591193999929], [-77.67384719599994, -3.0147386689999394], [-77.67101434799997, -3.011756780999974], [-77.66737693099998, -3.014357701999927], [-77.66925175299997, -3.0204551859999356], [-77.67064501399994, -3.0221924679999574], [-77.67259826699996, -3.0253295419999517], [-77.67229700799999, -3.028567837999958], [-77.66936713099994, -3.0322249659999443], [-77.66617603399999, -3.034881183999971], [-77.66098753199998, -3.0383515939999484], [-77.65711618399996, -3.0367591179999636], [-77.65416614899993, -3.032581918999938], [-77.65144289299997, -3.035563207999928], [-77.65132092799996, -3.0401640629999633], [-77.65151764699993, -3.048628212999972], [-77.65158977199997, -3.0528220929999748], [-77.64867163599996, -3.0558756439999684], [-77.64406359999998, -3.0584838509999486], [-77.64295155799994, -3.0608873259999427], [-77.64342173199998, -3.064444198999979], [-77.64432627399998, -3.0685906049999403], [-77.64351530899995, -3.0715480869999396], [-77.64638255199998, -3.072927818999972], [-77.64984786799994, -3.07376564599997], [-77.65359164499995, -3.069858748999934], [-77.65722466699998, -3.0692710249999777], [-77.65705796199995, -3.0730350779999753], [-77.65508185799996, -3.081882423999957], [-77.65319946599999, -3.0863107399999308], [-77.65019140399994, -3.087633407999931], [-77.64702734599996, -3.08936295999996], [-77.64745469499996, -3.0947897909999256], [-77.64939537699996, -3.098495970999977], [-77.64891630499994, -3.102887313999929], [-77.65051816699997, -3.1080624889999626], [-77.65313424399994, -3.1116808449999667], [-77.65571421399994, -3.1141706569999315], [-77.65898171699996, -3.116963036999948], [-77.66145631299997, -3.1217263759999696], [-77.66055982899996, -3.1272317799999314], [-77.65700580599997, -3.1309136009999747], [-77.65387917699996, -3.132408846999965], [-77.64774956999997, -3.1316162279999276], [-77.64749324699994, -3.1280588559999387], [-77.64895529099994, -3.122971578999966], [-77.64586052099997, -3.1257961879999243], [-77.64534006799994, -3.1291104109999424], [-77.64297417599994, -3.1339573279999513], [-77.63975173599994, -3.1348660359999485], [-77.64636501499996, -3.4572588009999663], [-77.62648399499994, -3.4719195579999678], [-77.60635371399997, -3.482755114999975], [-77.59170451199998, -3.4914567699999566], [-77.57221456899998, -3.498440465999977], [-77.56609977599999, -3.4998601259999305], [-77.55683202499995, -3.5012916449999807], [-77.54844362199998, -3.5040789579999796], [-77.54534763299995, -3.5085352769999645], [-77.54769523599998, -3.514201064999952], [-77.54810118499995, -3.519963028999939], [-77.54567270499996, -3.52658887299998], [-77.54320418599997, -3.532497446999969], [-77.53428510999998, -3.536305034999941], [-77.52972132199994, -3.5331322629999704], [-77.52577413299997, -3.5309047419999615], [-77.52143055599998, -3.5351865649999468], [-77.52284642199999, -3.5395599009999614], [-77.52383539099998, -3.5444260099999383], [-77.52622618399994, -3.548413026999981], [-77.52576811099993, -3.55675055699993], [-77.51768601699996, -3.558647579999956], [-77.51184077899995, -3.55340733099996], [-77.50238042999996, -3.5543753389999324], [-77.49266653999996, -3.554908712999975], [-77.48190063799996, -3.5536847359999797], [-77.47312622499999, -3.5549232389999474], [-77.48862544399998, -3.563858811999978], [-77.48464567599996, -3.5743823419999785], [-77.46837771799994, -3.5682325319999677], [-77.45766483699998, -3.5673812829999747], [-77.45449057199994, -3.580232075999959], [-77.44512959899998, -3.5859696699999404], [-77.44250186999994, -3.585981500999935], [-77.44659127499995, -3.60034344099995], [-77.44099727299994, -3.6073321439999404], [-77.42430017399994, -3.61385805499998], [-77.42602626299998, -3.6010364129999743], [-77.41621271399998, -3.6020957489999432], [-77.40465068699996, -3.609932565999941], [-77.39478981799994, -3.6202712429999337], [-77.38691529399995, -3.6292845289999605], [-77.39104901599995, -3.640619289999961], [-77.39823502199994, -3.650286026999936], [-77.40919378399997, -3.6553171499999735], [-77.41020778499995, -3.6535063959999547], [-77.40939971299997, -3.6539868859999274], [-77.40986888299994, -3.658524805999946], [-77.40499531499995, -3.664488166999945], [-77.39606337499998, -3.6768719219999753], [-77.39147227999996, -3.6852644279999254], [-77.38219501699996, -3.691464531999941], [-77.36929709499998, -3.6879643139999416], [-77.36514102599995, -3.6773326269999416], [-77.35755277799996, -3.6777545869999244], [-77.35743974399998, -3.6908802689999334], [-77.36384088099999, -3.697024067999962], [-77.36428354599997, -3.7077374259999374], [-77.36099684699997, -3.714395005999961], [-77.35778303699993, -3.7198231009999745], [-77.34950918699997, -3.716817419999927], [-77.34269572299996, -3.7132815699999355], [-77.33692275099997, -3.721533878999935], [-77.34122001599997, -3.7278364619999707], [-77.35230804099996, -3.732618797999976], [-77.36247981199995, -3.7383983149999267], [-77.37056657899996, -3.7301683629999616], [-77.38657934399998, -3.7284364239999377], [-77.39858682599998, -3.724668003999966], [-77.40623428299995, -3.7144302989999574], [-77.42230579599999, -3.7170551549999686], [-77.43816124399996, -3.7207851299999675], [-77.44443493799997, -3.7374651269999504], [-77.43821784899995, -3.7510908599999766], [-77.43461022599996, -3.7636005889999637], [-77.42511563299996, -3.768649368999945], [-77.42290903199995, -3.773070306999955], [-77.41385539199996, -3.7757980339999335], [-77.40762698499998, -3.7791492149999613], [-77.39757977099998, -3.7825349009999627], [-77.39107634499999, -3.7759473529999354], [-77.38262416099997, -3.7775969499999746], [-77.38089093099995, -3.774109975999977], [-77.37282141599997, -3.7781739619999257], [-77.37298605599995, -3.7809334399999557], [-77.36516151399996, -3.787579707999953], [-77.36185568299999, -3.7924198729999716], [-77.35241461499999, -3.7983100309999713], [-77.35479410199997, -3.808295838999925], [-77.35270088699997, -3.814299845999926], [-77.34905112999996, -3.8211779259999616], [-77.34917646399998, -3.8252338359999385], [-77.34603125899997, -3.8331493179999256], [-77.34257802499997, -3.8311402419999467], [-77.34012186199999, -3.8350406269999553], [-77.33768098499996, -3.8358126619999666], [-77.33342870399997, -3.8411912579999807], [-77.32627869199996, -3.8387139009999487], [-77.32412498799994, -3.8382749249999506], [-77.32240403099996, -3.844651118999934], [-77.31739501099997, -3.846736008999926], [-77.31312234099994, -3.83933331999998], [-77.31084122099998, -3.843577646999961], [-77.29188407599997, -3.845963296999969], [-77.29536434199997, -3.8704167079999365], [-77.30350842499996, -3.882826768999962], [-77.29430120099994, -3.89117519499996], [-77.25212243799996, -3.9584945839999364], [-77.24141828699999, -3.9473442739999314], [-77.23238952199995, -3.9552474029999303], [-77.23296963599995, -3.9743949549999797], [-77.22302566099995, -3.983936708999977], [-77.21351173099998, -3.9762557959999754], [-77.21838423699995, -3.992105538999965], [-77.20747883099995, -4.003860024999938], [-77.19663494099996, -3.995933794999928], [-77.19594226999999, -4.004139883999926], [-77.21123853099994, -4.020272492999936], [-77.21602553699995, -4.032443652999973], [-77.22014603299993, -4.041181817999927], [-77.20225770699994, -4.048047589999953], [-77.21889530599998, -4.054206558999965], [-77.48657443599996, -4.324676065999938], [-77.58042828299995, -4.329979451999975], [-77.55913078599997, -4.44054506599997], [-77.61759858999994, -4.406577337999977], [-77.64187842599995, -4.340966557999934], [-77.64487243499997, -4.334753546999934], [-77.64921450299994, -4.3339827319999245], [-77.65330276699996, -4.334207478999929], [-77.65721107999997, -4.33338076299998], [-77.66148059999995, -4.335039466999945], [-77.66488864099995, -4.33148388799998], [-77.70720301599994, -4.21858657599995], [-77.71106142899998, -4.209071354999935], [-77.68897776399996, -4.163293286999931], [-77.64940329499996, -3.901720457999943], [-77.65081573499998, -3.897800945999961], [-77.66754673999998, -3.8306086459999733], [-77.71320024099998, -3.553048518999958]]]}}, {"type": "Feature", "properties": {"objectid": 17282, "anp_gid": 99, "zr_codi": "ZR05", "zr_nomb": "Cordillera Huayhuash", "anp_sect": " ", "zr_ubpo": "Ancash, Huanuco, Lima", "anp_suleg": 67589.76, "zr_balec": "R.M. N° 1173-2002-AG", "zr_felec": 1040360400000, "zr_balem": " ", "zr_felem": null, "zr_obs": null, "met_link": null, "zr_orden": 5, "zr_id": 103}, "geometry": {"type": "Polygon", "coordinates": [[[-76.92590230499997, -10.203621134999935], [-76.92593298299994, -10.201135051999927], [-76.92573554399996, -10.198650313999963], [-76.92592862999999, -10.195855924999933], [-76.92564179999994, -10.193679060999955], [-76.92551547499994, -10.190877513999965], [-76.92628721999995, -10.188712489999944], [-76.92660082999998, -10.186233777999973], [-76.92709692799997, -10.183753991999936], [-76.92773759599999, -10.182556981999937], [-76.93001102499994, -10.179750325999976], [-76.93058383899995, -10.17789382199993], [-76.92915822999998, -10.176012946999947], [-76.92870224099994, -10.174533132999954], [-76.92802304799994, -10.17234954099996], [-76.92762062399999, -10.170670535999932], [-76.92373609599997, -10.167366785999945], [-76.91266907899995, -10.163332433999926], [-76.91161281299998, -10.155297411999982], [-76.91382193299995, -10.14242719799995], [-76.91338366299993, -10.130653805999941], [-76.91434445499993, -10.120605061999981], [-76.90946352399999, -10.123047047999933], [-76.90768582599998, -10.126356881999982], [-76.90862509599998, -10.129370711999968], [-76.90795152699997, -10.132719336999969], [-76.90726779299996, -10.134350464999955], [-76.90541073899993, -10.13659406599993], [-76.90411780999995, -10.138581276999957], [-76.90374285299998, -10.139975577999962], [-76.90357090399993, -10.141757411999947], [-76.90330771999999, -10.143539775999955], [-76.90400692299994, -10.144521055999974], [-76.90461031499996, -10.146271271999979], [-76.90439206199994, -10.147935857999926], [-76.90443983499995, -10.149842972999977], [-76.90403611499994, -10.151002407999954], [-76.90389250599998, -10.152946793999945], [-76.90378694399999, -10.155153111999937], [-76.90259260099998, -10.15685048399996], [-76.90085593399994, -10.15787301499995], [-76.89544592999994, -10.161077318999958], [-76.89071040599998, -10.16417822099993], [-76.88631036199996, -10.166933622999977], [-76.88455267199998, -10.169059069999946], [-76.88590406799995, -10.17077790199994], [-76.88428709399994, -10.173562450999952], [-76.88582778999995, -10.174882435999962], [-76.88678984599994, -10.177109733999941], [-76.88915262499995, -10.178569593999953], [-76.88837203299994, -10.180825020999976], [-76.88725598199994, -10.18189816399996], [-76.88544453999998, -10.182649879999929], [-76.88140104099995, -10.18401106899995], [-76.87867520199995, -10.18756133599993], [-76.87568989499994, -10.190444127999967], [-76.87526892199998, -10.19335739099995], [-76.87482776199994, -10.197500196999954], [-76.87227220099999, -10.21308157599998], [-76.87174354099994, -10.217821520999962], [-76.87085603899999, -10.222111530999939], [-76.87175006299998, -10.22517092299995], [-76.87200412399994, -10.22803510999995], [-76.87127640799997, -10.230000950999965], [-76.87073802099997, -10.234686712999974], [-76.87063823799997, -10.237905490999935], [-76.86912639699995, -10.243365241999982], [-76.86636086699997, -10.243100889999937], [-76.86167234299995, -10.241988732999971], [-76.85923794999997, -10.242409456999951], [-76.85658919299993, -10.243635944999937], [-76.85477178799994, -10.241865441999948], [-76.85461131599999, -10.239380363999942], [-76.85381394899997, -10.23723339399993], [-76.85081207299999, -10.234222085999932], [-76.84857000899996, -10.233177147999982], [-76.84588113799998, -10.232198005999976], [-76.84436242099997, -10.231555731999947], [-76.84237712499998, -10.230717210999956], [-76.84073863299994, -10.229876713999943], [-76.83401183099994, -10.237924182999961], [-76.83069234299995, -10.257514662999938], [-76.82973999299998, -10.270076703999962], [-76.83403738899995, -10.287572058999956], [-76.83293621199994, -10.295660099999964], [-76.83166474199999, -10.305828320999979], [-76.83397759699994, -10.313544441999966], [-76.83144317599994, -10.322571745999937], [-76.82891007599994, -10.321826742999974], [-76.82805560599996, -10.320882376999975], [-76.82716848599995, -10.319025144999955], [-76.82614814599998, -10.31781050799998], [-76.82233180599997, -10.316159648999928], [-76.82081776099994, -10.31481217299995], [-76.81990777199997, -10.31214143099993], [-76.81788519899999, -10.311257845999933], [-76.81575471099995, -10.30906403399996], [-76.81304715899995, -10.308120978999966], [-76.81094712899994, -10.309651496999948], [-76.80949696399995, -10.309885622999957], [-76.80817856699997, -10.309214990999976], [-76.80652029499998, -10.309775713999954], [-76.80518843499993, -10.30994587999993], [-76.80393569399996, -10.309582226999964], [-76.80034797599995, -10.311184267999977], [-76.80172422699997, -10.31239702299996], [-76.80264855299998, -10.316007940999953], [-76.80052637399996, -10.318478709999965], [-76.80000493199998, -10.321501041999966], [-76.79907974599996, -10.32416401699993], [-76.79690405199995, -10.326870118999977], [-76.79576434099994, -10.328738746999932], [-76.79629734999997, -10.332568826999932], [-76.79583880899997, -10.337028201999942], [-76.78586964199997, -10.34894438899994], [-76.78004665299994, -10.358468913999957], [-76.77448675799997, -10.37159900699993], [-76.77163550999995, -10.37117176399994], [-76.76995262999998, -10.370674780999934], [-76.76934737799996, -10.371835272999931], [-76.76859273099996, -10.372408966999956], [-76.76770238799998, -10.371582156999978], [-76.76626973599997, -10.371743720999973], [-76.76652259899998, -10.374499628999956], [-76.76542142699998, -10.375156585999946], [-76.76391123899998, -10.376150277999955], [-76.76266561199998, -10.378733611999962], [-76.75928832399995, -10.382223626999973], [-76.75630082299995, -10.385214263999956], [-76.75532863799998, -10.38772376399993], [-76.75520897799998, -10.390825263999943], [-76.75547505999998, -10.394322427999953], [-76.75535540999994, -10.397423926999977], [-76.75733682899994, -10.404636310999933], [-76.75481164099995, -10.41914184199993], [-76.75468144699994, -10.42881573099993], [-76.76200840199994, -10.436423530999946], [-76.76640135699995, -10.447654426999975], [-76.77245227599997, -10.458912151999925], [-76.77306464899993, -10.469088062999958], [-76.77221318199997, -10.481938987999968], [-76.76878140999997, -10.492661747999932], [-76.76817142999994, -10.50276310199996], [-76.77129115999998, -10.510664955999971], [-76.78662665899998, -10.515117129999965], [-76.78770789699996, -10.520996174999937], [-76.78975845199994, -10.517675912999948], [-76.79333939799994, -10.513668983999935], [-76.80593696999995, -10.500634047999938], [-76.82775290999996, -10.506258655999943], [-76.83178528799994, -10.519045013999971], [-76.83074382699994, -10.536832597999933], [-76.84871153999995, -10.54272158599997], [-76.85625152199998, -10.54358141399996], [-76.86441528999995, -10.533906039999977], [-76.86779499099998, -10.527784277999956], [-76.87079586299996, -10.52096867499995], [-76.87397612699993, -10.518165648999968], [-76.87667089599995, -10.512879546999955], [-76.88085697099996, -10.49322953099994], [-76.87732944799995, -10.471374211999944], [-76.87821244499997, -10.467852543999982], [-76.87866389499999, -10.462435072999938], [-76.87915649599995, -10.456267061999938], [-76.88041155599996, -10.453873170999941], [-76.88130945599994, -10.451318668999932], [-76.88311590899997, -10.449500063999949], [-76.88586386699996, -10.449339195999926], [-76.88786849799999, -10.448586084999931], [-76.89012755899995, -10.449133170999971], [-76.89251928499993, -10.448965317999978], [-76.89623512699995, -10.448780541999952], [-76.90034842299997, -10.449379803999932], [-76.90362386599998, -10.448863097999947], [-76.90892189299996, -10.450548967999964], [-76.91193076099995, -10.451245075999964], [-76.91467187399996, -10.45295519399997], [-76.91777669799995, -10.454400947999943], [-76.92089067799998, -10.45584661099997], [-76.92252669699997, -10.456053699999927], [-76.92417218299994, -10.45631495999993], [-76.92571258999999, -10.455826564999938], [-76.92752439299994, -10.454920705999939], [-76.92951279099998, -10.45599341999997], [-76.93108061199996, -10.456987311999967], [-76.93219698899998, -10.457342126999947], [-76.93382080199996, -10.457052057999931], [-76.93552764199995, -10.456897068999979], [-76.93706714799998, -10.45810804599995], [-76.93938785399996, -10.457904106999933], [-76.94216344499995, -10.457787775999975], [-76.94345317399996, -10.458114373999933], [-76.94482487099998, -10.458404309999935], [-76.94670812899994, -10.45889902099998], [-76.94818954299996, -10.459025561999965], [-76.94954783299994, -10.460092944999928], [-76.95061207499998, -10.459408478999933], [-76.95213401999996, -10.460357336999948], [-76.95452599599997, -10.46023420399996], [-76.95686849899994, -10.460961057999953], [-76.95685782699996, -10.46217239699996], [-76.95877073099996, -10.462838595999926], [-76.96227507899994, -10.460973010999965], [-76.96696460299995, -10.460239035999962], [-76.97012262799996, -10.45994835099998], [-76.97499553999995, -10.459339679999971], [-76.97743493499996, -10.458059059999925], [-76.97951423899997, -10.45760323199994], [-76.98425669799997, -10.455160275999958], [-76.98577041499993, -10.453370126999971], [-76.98614361199998, -10.451740744999938], [-76.98845474699993, -10.448978426999929], [-76.99011860599995, -10.447829113999944], [-76.99221691199995, -10.44607145699996], [-76.99335032799996, -10.44337070399996], [-76.99484402999997, -10.43989032899998], [-76.99667102799998, -10.438559191999957], [-76.99716952199998, -10.436540340999954], [-76.99970549699998, -10.434698564999962], [-76.98200711199996, -10.357794341999977], [-77.00097707099997, -10.336028057999954], [-77.00322995899995, -10.331404082999939], [-77.00332452099997, -10.324714496999945], [-77.00760993799997, -10.314944479999951], [-77.00782449899998, -10.295834709999951], [-77.00317182699996, -10.281739869999967], [-76.99888426299998, -10.273853601999974], [-76.99963395799995, -10.268051108999941], [-77.00072547099995, -10.265758776999974], [-77.00188492499996, -10.262913308999941], [-77.00607161699998, -10.25673175999998], [-77.00085063399996, -10.256628380999928], [-76.99832020399998, -10.256246234999935], [-76.99635667099994, -10.256032328999936], [-76.99435753999995, -10.255963257999952], [-76.99256386799993, -10.253723486999945], [-76.98540652899999, -10.253369580999959], [-76.94714482999996, -10.23789953499994], [-76.94541572199995, -10.235704233999968], [-76.94431093499998, -10.23411987999998], [-76.94182597199995, -10.23368273899996], [-76.93985310999994, -10.231913710999947], [-76.93751236599996, -10.231177367999976], [-76.93504699099998, -10.230957001999968], [-76.92921920799995, -10.220388122999964], [-76.92750195899998, -10.213166582999975], [-76.92788236499996, -10.211175615999935], [-76.92685580699998, -10.208912733999966], [-76.92625678599995, -10.206421330999945], [-76.92590230499997, -10.203621134999935]]]}}, {"type": "Feature", "properties": {"objectid": 17289, "anp_gid": 102, "zr_codi": "ZR13", "zr_nomb": "Bosque de Zárate", "anp_sect": " ", "zr_ubpo": "Lima", "anp_suleg": 545.75, "zr_balec": "R.M. N° 195-2010-MINAM", "zr_felec": 1286946000000, "zr_balem": " ", "zr_felem": null, "zr_obs": null, "met_link": null, "zr_orden": 13, "zr_id": 106}, "geometry": {"type": "Polygon", "coordinates": [[[-76.50180397199995, -11.919403665999937], [-76.50066111099994, -11.920231513999966], [-76.49972178199994, -11.920133797999938], [-76.49846924899998, -11.919986385999948], [-76.49680286599994, -11.920457484999929], [-76.49534410699994, -11.920747713999958], [-76.49399203999997, -11.921473927999955], [-76.49201411499996, -11.922203453999941], [-76.49139106999996, -11.922720353999978], [-76.48977596599997, -11.923037062999981], [-76.48836835699996, -11.923147227999948], [-76.48722319599995, -11.923564158999966], [-76.48597092699998, -11.92346805099993], [-76.48487428299995, -11.923217035999926], [-76.48388055499998, -11.922708673999978], [-76.48325218999997, -11.922249743999942], [-76.48241353699996, -11.921483758999955], [-76.48126196299995, -11.92071941699993], [-76.48026978099995, -11.92049351299994], [-76.48012153599996, -11.92054748199996], [-76.48009670199997, -11.920580469999948], [-76.47951461799994, -11.921099108999954], [-76.47940721499998, -11.921236546999978], [-76.47916139999995, -11.921328875999961], [-76.47888492199996, -11.921421275999933], [-76.47848531699998, -11.921544696999945], [-76.47823975699998, -11.921667309999975], [-76.47791733799994, -11.921820701999934], [-76.47788790399994, -11.921844841999928], [-76.47765684599995, -11.922034339999982], [-76.47741193099995, -11.922293460999981], [-76.47729531799996, -11.922518962999959], [-76.47722676099994, -11.922651536999979], [-76.47716816499997, -11.922764847999929], [-76.47700010799997, -11.922993189999943], [-76.47698624399999, -11.923281474999953], [-76.47691046099999, -11.92349414399996], [-76.47690600499999, -11.923506653999937], [-76.47683467699994, -11.923706903999971], [-76.47677381399996, -11.923843734999934], [-76.47658992499998, -11.92399630899996], [-76.47635960999997, -11.924103652999975], [-76.47608344699995, -11.924271988999976], [-76.47576094099998, -11.924410100999978], [-76.47540694299994, -11.924411955999972], [-76.47485305799995, -11.924460420999935], [-76.47482835499994, -11.92446489799994], [-76.47442253599996, -11.924538435999978], [-76.47416113999998, -11.924585368999942], [-76.47390022299999, -11.924738343999934], [-76.47378203399995, -11.92482120699998], [-76.47389505999996, -11.925042183999949], [-76.47412361299996, -11.925489029999937], [-76.47466453799996, -11.926406072999953], [-76.47494115599994, -11.92712000299997], [-76.47518113899997, -11.928019996999979], [-76.47542515299995, -11.928799098999946], [-76.47551738099997, -11.930201526999952], [-76.47570428399996, -11.93086014499994], [-76.47614315899995, -11.932019191999927], [-76.47638803399997, -11.932956224999941], [-76.47683436899996, -11.933762196999965], [-76.47728709099994, -11.934865387999935], [-76.47743958499996, -11.935254776999955], [-76.47779574199996, -11.935903190999966], [-76.47849607899997, -11.936717137999949], [-76.47850138799998, -11.93671412699996], [-76.47918151499994, -11.936600535999958], [-76.47919605899995, -11.936598106999952], [-76.47921677399995, -11.936594646999936], [-76.47922564099997, -11.936595394999927], [-76.48042387899994, -11.936696425999969], [-76.48095371499994, -11.93674109799997], [-76.48199780599998, -11.93672737299994], [-76.48346018399997, -11.93666234899996], [-76.48505823799997, -11.936408287999939], [-76.48625305799999, -11.93591894399998], [-76.48717998399997, -11.935701231999928], [-76.48804160699996, -11.935647496999934], [-76.48864030799996, -11.935892125999942], [-76.48912959799998, -11.936092047999978], [-76.49012410599994, -11.936095008999928], [-76.49041927599995, -11.93593894999998], [-76.49042639499999, -11.935935185999938], [-76.49043821899994, -11.935934946999964], [-76.49070688699999, -11.93592952199998], [-76.49145258499993, -11.935619986999939], [-76.49167910399996, -11.935593654999934], [-76.49217557399999, -11.935606056999973], [-76.49246917999994, -11.935596582999949], [-76.49266602799997, -11.935548041999937], [-76.49298530899995, -11.935642541999925], [-76.49343176299999, -11.935478473999979], [-76.49385923999995, -11.935341279999932], [-76.49388957399998, -11.93533154499994], [-76.49428832499996, -11.935266147999926], [-76.49457500399996, -11.935168308999948], [-76.49469995099997, -11.935207125999966], [-76.49491887999994, -11.935275138999941], [-76.49533440899995, -11.93554392699997], [-76.49592347999999, -11.935904519999951], [-76.49644181299993, -11.936105878999967], [-76.49681899099994, -11.936083722999967], [-76.49715945799994, -11.936000940999975], [-76.49744217699998, -11.93584440899997], [-76.49768758299996, -11.935724833999927], [-76.49789377599996, -11.935539931999926], [-76.49851573299998, -11.93491946499995], [-76.49873406699999, -11.934741448999944], [-76.49880780999996, -11.93468132299995], [-76.49902845599996, -11.93451603099993], [-76.49930409899997, -11.93439208999996], [-76.49950797799994, -11.934346910999977], [-76.50000084399994, -11.934336093999946], [-76.50159507799998, -11.93430109999997], [-76.50200452599995, -11.934120236999945], [-76.50214855399997, -11.933995464999953], [-76.50228439599994, -11.933877783999947], [-76.50243484699996, -11.933859714999926], [-76.50257290699994, -11.933843134999961], [-76.50292223399998, -11.933534892999944], [-76.50396989799998, -11.93205568299993], [-76.50434276799996, -11.93141180999993], [-76.50523823599997, -11.930638572999953], [-76.50644653799998, -11.929990227999951], [-76.50809560399995, -11.929357596999978], [-76.50966153499996, -11.92863499899994], [-76.51055852899998, -11.928141996999955], [-76.51138532899995, -11.927562876999957], [-76.50492412099999, -11.91774350299994], [-76.50388501799995, -11.91846808799994], [-76.50294795599996, -11.91878124799996], [-76.50180397199995, -11.919403665999937]]]}}]}